TIANMU-1 21             
1 58662U 23208C   26168.83430376  .00007739  00000+0  22961-3 0  9997
2 58662  97.4513 288.4564 0005926 321.0408  39.0407 15.35086842137663
TIANMU-1 22             
1 58663U 23208D   26168.85700706  .00006290  00000+0  21218-3 0  9992
2 58663  97.4506 285.0953 0003129   1.5093 358.6157 15.31066321137437
TIANMU-1 15             
1 58700U 24004A   26168.81944824  .00004384  00000+0  16805-3 0  9994
2 58700  97.4667 355.0095 0006629   0.2368 359.8873 15.27028749135872
TIANMU-1 16             
1 58701U 24004B   26168.87433941  .00004498  00000+0  17380-3 0  9999
2 58701  97.4614 354.3005 0005758   5.6837 354.4466 15.26754445135888
TIANMU-1 17             
1 58702U 24004C   26168.85979336  .00004532  00000+0  17511-3 0  9996
2 58702  97.4641 354.7711 0005453  12.2921 347.8450 15.26753441135870
TIANMU-1 18             
1 58703U 24004D   26168.83607015  .00004414  00000+0  16931-3 0  9991
2 58703  97.4658 355.0034 0003980  13.1286 347.0055 15.27010903135871
INSAT-3DS               
1 58990U 24033A   26168.84175735 -.00000161  00000+0  00000+0 0  9993
2 58990   0.0443 109.1301 0001039 325.9093 216.1829  1.00271295 47077
METEOR-M2 4             
1 59051U 24039A   26168.88685377  .00000010  00000+0  23925-4 0  9998
2 59051  98.7010 128.1761 0007332 159.0156 201.1324 14.22429617119366
GOES 19                 
1 60133U 24119A   26168.81061428 -.00000254  00000+0  00000+0 0  9993
2 60133   0.0116 105.5698 0000358  74.9013 302.2192  1.00271008  6977
MTG-S1                  
1 64723U 25143A   26168.82479741 -.00000037  00000+0  00000+0 0  9991
2 64723   0.6026 339.1434 0000796  17.1669 203.2122  1.00270486  3426
METOP-SGA1              
1 65159U 25172A   26167.15332899  .00000049  00000+0  42000-4 0  9997
2 65159  98.6644 226.8998 0000902  93.8213 266.3067 14.21509720 43644
FENGYUN 3H              
1 65815U 25219A   26168.81618521  .00000037  00000+0  37845-4 0  9999
2 65815  98.6768 109.5730 0001591  76.2688 283.8666 14.19920549 37473
